{
  "type": "FeatureCollection",
  "features": [
    {
      "type": "Feature",
      "properties": {
        "PROVINCE": 5,
        "DISTRICT": "NAWALPARASI",
        "PALIKA": "Sunwal",
        "TYPE": "Nagarpalika",
        "WARD": 12
      },
      "geometry": {
        "type": "Polygon",
        "coordinates": [
          [
            [
              83.71904612338865,
              27.57744546993002
            ],
            [
              83.71932660179134,
              27.577032301485495
            ],
            [
              83.71960708019404,
              27.576819261506287
            ],
            [
              83.71980844930366,
              27.576593310013187
            ],
            [
              83.7203046803238,
              27.575967101589452
            ],
            [
              83.72084406186744,
              27.575166587728184
            ],
            [
              83.72108858150057,
              27.574921268964246
            ],
            [
              83.72117488254754,
              27.574772786554494
            ],
            [
              83.72147693621199,
              27.57443063143637
            ],
            [
              83.72177898987641,
              27.574165945401596
            ],
            [
              83.72227522089656,
              27.573746321200126
            ],
            [
              83.7223830972053,
              27.573578471519536
            ],
            [
              83.7223902889592,
              27.57328796245698
            ],
            [
              83.72223926212699,
              27.572945807338858
            ],
            [
              83.72209542704869,
              27.572752134630484
            ],
            [
              83.72200912600171,
              27.572713400088812
            ],
            [
              83.7217717981225,
              27.57246162556793
            ],
            [
              83.72126118359452,
              27.572132381963698
            ],
            [
              83.72105262273098,
              27.571958076526162
            ],
            [
              83.72039098137078,
              27.571564275352472
            ],
            [
              83.720117694722,
              27.571331868102426
            ],
            [
              83.71980125754975,
              27.57111882812322
            ],
            [
              83.71962865545578,
              27.570776673005096
            ],
            [
              83.71950639563921,
              27.570085907011904
            ],
            [
              83.71942728634616,
              27.56985349976186
            ],
            [
              83.71938413582266,
              27.569562990699303
            ],
            [
              83.7193050265296,
              27.56936931799093
            ],
            [
              83.71915399969738,
              27.56923374709507
            ],
            [
              83.71898139760341,
              27.56917564528256
            ],
            [
              83.7186433851694,
              27.56898197257419
            ],
            [
              83.71828379747365,
              27.56884640167833
            ],
            [
              83.71804646959444,
              27.568613994428283
            ],
            [
              83.71798893556311,
              27.568439688990747
            ],
            [
              83.71798893556311,
              27.568265383553214
            ],
            [
              83.71798893556311,
              27.567677909671154
            ],
            [
              83.71819749642665,
              27.56705170124742
            ],
            [
              83.71857865938416,
              27.56646422736536
            ],
            [
              83.71890228831035,
              27.565702448045762
            ],
            [
              83.71902454812691,
              27.565173075976215
            ],
            [
              83.71902454812691,
              27.565114974163706
            ]
          ]
        ]
      }
    },
    {
      "type": "Feature",
      "properties": {
        "PROVINCE": 5,
        "DISTRICT": "NAWALPARASI",
        "PALIKA": "Sunwal",
        "TYPE": "Nagarpalika",
        "WARD": 1
      },
      "geometry": {
        "type": "Polygon",
        "coordinates": [
          [
            [
              83.65955593500232,
              27.604901804220148
            ],
            [
              83.65906689573609,
              27.605030919359063
            ],
            [
              83.65846278840722,
              27.605314972664676
            ],
            [
              83.65802409141838,
              27.605579658699448
            ],
            [
              83.6577436130157,
              27.605708773838362
            ],
            [
              83.65762135319915,
              27.605708773838362
            ],
            [
              83.65755662741391,
              27.60567003929669
            ],
            [
              83.65747032636692,
              27.605553835671667
            ],
            [
              83.65745594285909,
              27.604785600595125
            ],
            [
              83.65739840882777,
              27.604475724261732
            ],
            [
              83.65739840882777,
              27.604249772768632
            ],
            [
              83.65734087479645,
              27.604017365518587
            ],
            [
              83.65648505608054,
              27.602242032358514
            ],
            [
              83.65640594678747,
              27.601861142698716
            ],
            [
              83.656276495217,
              27.60162873544867
            ],
            [
              83.65585218173601,
              27.60110581913607
            ],
            [
              83.65572992191944,
              27.600989615511047
            ],
            [
              83.65555731982549,
              27.600892779156858
            ],
            [
              83.65511143108274,
              27.600757208261
            ],
            [
              83.65460081655476,
              27.60049897798317
            ],
            [
              83.65383129888585,
              27.600208468920613
            ],
            [
              83.6535723957449,
              27.600047074996972
            ],
            [
              83.65299705543168,
              27.599814667746926
            ],
            [
              83.65268061825941,
              27.59958226049688
            ],
            [
              83.65255116668894,
              27.599524158684368
            ],
            [
              83.65206212742271,
              27.59909807872595
            ],
            [
              83.65178884077393,
              27.598923773288416
            ],
            [
              83.65155151289473,
              27.598820481177285
            ],
            [
              83.65127822624595,
              27.5985687066564
            ],
            [
              83.65096178907369,
              27.59839440121887
            ],
            [
              83.65055905085444,
              27.598026423072962
            ],
            [
              83.65026418894392,
              27.597542241302033
            ],
            [
              83.6501635043891,
              27.59706451528805
            ],
            [
              83.65007720334212,
              27.596890209850518
            ],
            [
              83.6497823414316,
              27.596696537142144
            ],
            [
              83.64967446512287,
              27.596657802600472
            ],
            [
              83.64915665884098,
              27.596593245031013
            ],
            [
              83.64890494745394,
              27.596515775947665
            ],
            [
              83.64853816800428,
              27.596496408676828
            ],
            [
              83.64795563593715,
              27.596625523815742
            ],
            [
              83.64735152860827,
              27.59687084257968
            ],
            [
              83.64714296774473,
              27.59688375409357
            ],
            [
              83.64666831198633,
              27.596999957718594
            ],
            [
              83.64627995727491,
              27.597206541940857
            ],
            [
              83.64619365622792,
              27.59720008618391
            ],
            [
              83.64591317782524,
              27.597374391621443
            ],
            [
              83.64541694680508,
              27.59729046678115
            ],
            [
              83.64525153646504,
              27.597174263156127
            ],
            [
              83.6449926333241,
              27.597058059531104
            ],
            [
              83.64482003123013,
              27.597058059531104
            ],
            [
              83.64456112808918,
              27.59718717467002
            ],
            [
              83.64412962285427,
              27.597645533413164
            ],
            [
              83.64389229497507,
              27.597761737038187
            ],
            [
              83.6434320227245,
              27.5981168036702
            ],
            [
              83.64323784536879,
              27.598213640024387
            ],
            [
              83.64310839379831,
              27.598310476378572
            ]
          ]
        ]
      }
    },
    {
      "type": "Feature",
      "properties": {
        "PROVINCE": 5,
        "DISTRICT": "NAWALPARASI",
        "PALIKA": "Sunwal",
        "TYPE": "Nagarpalika",
        "WARD": 3
      },
      "geometry": {
        "type": "Polygon",
        "coordinates": [
          [
            [
              83.65955593500232,
              27.604901804220148
            ],
            [
              83.65964942780322,
              27.604766233324288
            ],
            [
              83.65969257832671,
              27.604611295157593
            ],
            [
              83.65967100306497,
              27.60455319334508
            ],
            [
              83.65936894940053,
              27.604398255178385
            ],
            [
              83.65905251222826,
              27.60408837884499
            ],
            [
              83.65880080084123,
              27.60368166615741
            ],
            [
              83.65857785646986,
              27.60304900197673
            ],
            [
              83.6582182687741,
              27.602584187476637
            ],
            [
              83.65780114704702,
              27.601351137900007
            ],
            [
              83.65754943565999,
              27.601021894295773
            ],
            [
              83.65740560058168,
              27.60062163736514
            ],
            [
              83.6574127923356,
              27.600221380434505
            ],
            [
              83.65728334076513,
              27.599950238642784
            ],
            [
              83.65696690359286,
              27.599717831392738
            ],
            [
              83.65675115097541,
              27.599614539281607
            ],
            [
              83.65621896118569,
              27.599478968385746
            ],
            [
              83.65602478382998,
              27.599472512628804
            ],
            [
              83.65572273016554,
              27.59954998171215
            ],
            [
              83.65557889508723,
              27.599530614441314
            ],
            [
              83.65549259404025,
              27.599511247170476
            ],
            [
              83.65538471773152,
              27.599395043545453
            ],
            [
              83.65545663527067,
              27.598878582989798
            ],
            [
              83.65596005804474,
              27.59794249823267
            ],
            [
              83.65602478382998,
              27.597658444927056
            ],
            [
              83.65608950961521,
              27.597329201322825
            ]
          ]
        ]
      }
    },
    {
      "type": "Feature",
      "properties": {
        "PROVINCE": 5,
        "DISTRICT": "NAWALPARASI",
        "PALIKA": "Sunwal",
        "TYPE": "Nagarpalika",
        "WARD": 4
      },
      "geometry": {
        "type": "Polygon",
        "coordinates": [
          [
            [
              83.65522649914539,
              27.690886030980135
            ],
            [
              83.65533437545412,
              27.690769827355112
            ],
            [
              83.65539910123935,
              27.690679446757873
            ],
            [
              83.65554293631766,
              27.689833742597983
            ],
            [
              83.65567238788813,
              27.689530322021536
            ],
            [
              83.65593129102908,
              27.689149432361738
            ],
            [
              83.65619019417002,
              27.688897657840855
            ],
            [
              83.65650663134228,
              27.688729808160268
            ],
            [
              83.65678710974498,
              27.688652339076917
            ],
            [
              83.65729772427295,
              27.68863297180608
            ],
            [
              83.65816073474278,
              27.688536135451894
            ],
            [
              83.65858504822377,
              27.688387653042145
            ],
            [
              83.65880080084123,
              27.68819398033377
            ],
            [
              83.65910285450566,
              27.687199793764133
            ],
            [
              83.65924668958397,
              27.68691574045852
            ],
            [
              83.65944086693968,
              27.686651054423745
            ],
            [
              83.65952716798667,
              27.686379912632027
            ],
            [
              83.6595918937719,
              27.685689146638836
            ],
            [
              83.65957031851015,
              27.685463195145733
            ],
            [
              83.65950559272491,
              27.685308256979038
            ],
            [
              83.65946244220143,
              27.6850629382151
            ],
            [
              83.65946244220143,
              27.684223689812157
            ],
            [
              83.65954874324841,
              27.683758875312066
            ],
            [
              83.65980045463544,
              27.68335861838143
            ],
            [
              83.66018880934686,
              27.683093932346658
            ],
            [
              83.66069942387483,
              27.682958361450797
            ],
            [
              83.66121723015672,
              27.682674308145184
            ],
            [
              83.6613466817272,
              27.682538737249324
            ],
            [
              83.66179257046994,
              27.68221594940204
            ],
            [
              83.6622025004431,
              27.68185442701308
            ],
            [
              83.66247578709188,
              27.681525183408848
            ],
            [
              83.66279941601806,
              27.6812217628324
            ],
            [
              83.6632453047608,
              27.680937709526788
            ],
            [
              83.6635257831635,
              27.680666567735067
            ],
            [
              83.66366242648789,
              27.68020820899192
            ],
            [
              83.66357612544091,
              27.68003390355439
            ],
            [
              83.66359770070265,
              27.679801496304343
            ],
            [
              83.66403639769148,
              27.67929149150563
            ],
            [
              83.6653740639197,
              27.67843287583185
            ],
            [
              83.66609323931122,
              27.67778730013728
            ],
            [
              83.66658947033136,
              27.677412866234427
            ],
            [
              83.66666857962443,
              27.67733539715108
            ],
            [
              83.66683398996447,
              27.677161091713543
            ],
            [
              83.66739494676986,
              27.67678665781069
            ],
            [
              83.6676538499108,
              27.676554250560645
            ],
            [
              83.66789117779001,
              27.676405768150897
            ],
            [
              83.66849528511888,
              27.67619918392863
            ],
            [
              83.66909939244776,
              27.67591513062302
            ],
            [
              83.66935829558871,
              27.67568917912992
            ],
            [
              83.6699695946715,
              27.675037147678403
            ],
            [
              83.67018534728895,
              27.674869297997816
            ],
            [
              83.67050897621513,
              27.674675625289442
            ],
            [
              83.67071034532476,
              27.674507775608856
            ],
            [
              83.67116342582142,
              27.673952580511525
            ],
            [
              83.67142952071627,
              27.673423208441974
            ],
            [
              83.67155897228675,
              27.67330700481695
            ],
            [
              83.67173157438071,
              27.673210168462766
            ],
            [
              83.67218465487737,
              27.673042318782176
            ],
            [
              83.67365177267607,
              27.672590415795977
            ],
            [
              83.67416957895796,
              27.672364464302877
            ],
            [
              83.67451478314588,
              27.672274083705638
            ],
            [
              83.67468738523985,
              27.6722547164348
            ],
            [
              83.67493909662689,
              27.672312818247313
            ],
            [
              83.67562231324882,
              27.672590415795977
            ],
            [
              83.67581649060453,
              27.672590415795977
            ],
            [
              83.67588121638977,
              27.672551681254305
            ],
            [
              83.67596751743675,
              27.67237737581677
            ],
            [
              83.6760394349759,
              27.67207395524032
            ],
            [
              83.67610416076114,
              27.67193838434446
            ],
            [
              83.67619046180812,
              27.67178990193471
            ],
            [
              83.67631991337859,
              27.671654331038848
            ],
            [
              83.67649970722647,
              27.6713509104624
            ],
            [
              83.67673703510567,
              27.671041034129004
            ],
            [
              83.67714696507885,
              27.67071824628172
            ],
            [
              83.67756408680592,
              27.67049229478862
            ],
            [
              83.67781579819295,
              27.67040191419138
            ],
            [
              83.6780747013339,
              27.670382546920543
            ],
            [
              83.67893771180371,
              27.67019532996912
            ],
            [
              83.68023222750845,
              27.669627223357892
            ],
            [
              83.68090106062256,
              27.669078484017508
            ],
            [
              83.6810592792087,
              27.668852532524408
            ],
            [
              83.68123188130266,
              27.668465187107664
            ],
            [
              83.68136133287314,
              27.668355439239587
            ],
            [
              83.68181441336979,
              27.668168222288163
            ],
            [
              83.6821020835264,
              27.667955182308955
            ],
            [
              83.68229626088211,
              27.667651761732504
            ],
            [
              83.68295071048838,
              27.667025553308772
            ],
            [
              83.68320961362933,
              27.666670486676757
            ],
            [
              83.68323118889109,
              27.666644663648974
            ],
            [
              83.68407981585307,
              27.665863517058543
            ],
            [
              83.68456166336539,
              27.665192118336186
            ],
            [
              83.68464796441236,
              27.66488869775974
            ],
            [
              83.68479899124459,
              27.66466274626664
            ],
            [
              83.684849333522,
              27.66450780809994
            ],
            [
              83.6850866614012,
              27.664049449356796
            ],
            [
              83.68519453770992,
              27.663913878460935
            ],
            [
              83.68533118103431,
              27.663823497863696
            ],
            [
              83.68571234399181,
              27.663707294238673
            ],
            [
              83.68614384922672,
              27.66371374999562
            ],
            [
              83.68725857108358,
              27.663894511190097
            ],
            [
              83.68776918561156,
              27.664030082085958
            ],
            [
              83.68820069084646,
              27.664049449356796
            ],
            [
              83.68880479817534,
              27.66392033421788
            ],
            [
              83.68906370131629,
              27.663829953620642
            ],
            [
              83.68914281060935,
              27.663829953620642
            ],
            [
              83.69000582107917,
              27.663584634856704
            ],
            [
              83.69060992840805,
              27.663307037308037
            ],
            [
              83.69076095524026,
              27.66317146641218
            ],
            [
              83.69117088521344,
              27.662926147648243
            ],
            [
              83.69151608940136,
              27.662790576752382
            ],
            [
              83.69175341728057,
              27.662887413106567
            ],
            [
              83.69194759463628,
              27.6630617185441
            ],
            [
              83.69213458023806,
              27.663429696690006
            ],
            [
              83.69223526479288,
              27.663720205752565
            ],
            [
              83.6922927988242,
              27.66423666630822
            ],
            [
              83.69235752460943,
              27.664410971745756
            ],
            [
              83.69260923599647,
              27.66475312686388
            ],
            [
              83.69299039895397,
              27.664985534113924
            ],
            [
              83.69358731452893,
              27.665243764391754
            ],
            [
              83.69401881976384,
              27.6653212334751
            ],
            [
              83.6946157353388,
              27.665327689232047
            ],
            [
              83.69496093952672,
              27.665269587419537
            ],
            [
              83.69530614371466,
              27.665121105009785
            ],
            [
              83.69569449842608,
              27.66485641897501
            ],
            [
              83.69583114175046,
              27.664624011724964
            ],
            [
              83.69591744279745,
              27.66416565298182
            ],
            [
              83.69620511295406,
              27.663571723342812
            ],
            [
              83.69640648206368,
              27.66295842643297
            ],
            [
              83.69654312538806,
              27.66273247493987
            ],
            [
              83.69678045326727,
              27.662467788905097
            ],
            [
              83.69686675431426,
              27.6623128507384
            ],
            [
              83.69731983481091,
              27.6619319610786
            ]
          ]
        ]
      }
    },
    {
      "type": "Feature",
      "properties": {
        "PROVINCE": 5,
        "DISTRICT": "NAWALPARASI",
        "PALIKA": "Sunwal",
        "TYPE": "Nagarpalika",
        "WARD": 10
      },
      "geometry": {
        "type": "Polygon",
        "coordinates": [
          [
            [
              83.64099401814725,
              27.5994014993024
            ],
            [
              83.64085018306895,
              27.599149724781515
            ],
            [
              83.64074949851414,
              27.598613896955023
            ],
            [
              83.64075669026805,
              27.598233007295224
            ],
            [
              83.64079984079154,
              27.59777464855208
            ],
            [
              83.64100840165509,
              27.59692894439219
            ],
            [
              83.64090052534635,
              27.59659970078796
            ],
            [
              83.64071353974457,
              27.596212355371215
            ],
            [
              83.64027484275574,
              27.59561842573221
            ],
            [
              83.63969950244253,
              27.595056774877932
            ],
            [
              83.63931833948502,
              27.594630694919516
            ],
            [
              83.638980327051,
              27.594359553127795
            ],
            [
              83.63887964249619,
              27.59410777860691
            ],
            [
              83.63890121775793,
              27.593875371356866
            ],
            [
              83.63894436828143,
              27.593784990759627
            ],
            [
              83.63920327142237,
              27.59355258350958
            ],
            [
              83.63954847561031,
              27.59348157018318
            ],
            [
              83.64008785715394,
              27.59344929139845
            ],
            [
              83.64107312744032,
              27.593262074447026
            ],
            [
              83.64128888005777,
              27.593203972634512
            ],
            [
              83.64143990689,
              27.593094224766435
            ],
            [
              83.64195771317189,
              27.592887640544173
            ],
            [
              83.64243956068421,
              27.592487383613538
            ],
            [
              83.64304366801308,
              27.591861175189806
            ],
            [
              83.6431946948453,
              27.59174497156478
            ],
            [
              83.64351832377149,
              27.591577121884193
            ],
            [
              83.64356147429497,
              27.59151902007168
            ],
            [
              83.64365496709587,
              27.591364081904985
            ],
            [
              83.64367654235761,
              27.591151041925777
            ],
            [
              83.64365496709587,
              27.591002559516024
            ],
            [
              83.64372688463503,
              27.59052483350204
            ],
            [
              83.6436693506037,
              27.590350528064505
            ],
            [
              83.6436693506037,
              27.590234324439482
            ],
            [
              83.6437125011272,
              27.590137488085297
            ]
          ]
        ]
      }
    },
    {
      "type": "Feature",
      "properties": {
        "PROVINCE": 5,
        "DISTRICT": "NAWALPARASI",
        "PALIKA": "Sunwal",
        "TYPE": "Nagarpalika",
        "WARD": 6
      },
      "geometry": {
        "type": "Polygon",
        "coordinates": [
          [
            [
              83.6974133276118,
              27.661299296897923
            ],
            [
              83.69744209462746,
              27.66107334540482
            ],
            [
              83.6975499709362,
              27.660782836342264
            ],
            [
              83.69757873795186,
              27.660614986661674
            ],
            [
              83.6978376410928,
              27.66009852610602
            ],
            [
              83.69814688651115,
              27.659640167362873
            ],
            [
              83.69825476281989,
              27.659349658300314
            ],
            [
              83.69865030928521,
              27.65872344987658
            ],
            [
              83.6990746227662,
              27.657748630577778
            ],
            [
              83.6991177732897,
              27.657516223327733
            ],
            [
              83.69908181452013,
              27.657057864584587
            ],
            [
              83.69915373205927,
              27.65654140402893
            ],
            [
              83.69924003310626,
              27.656308996778883
            ],
            [
              83.699261608368,
              27.656083045285783
            ],
            [
              83.6993551011689,
              27.655850638035737
            ],
            [
              83.69937667643065,
              27.6556763325982
            ],
            [
              83.69964277132551,
              27.654992022361956
            ],
            [
              83.69964996307942,
              27.654507840591027
            ],
            [
              83.69953489501678,
              27.653533021292226
            ],
            [
              83.6993047588915,
              27.65278415348652
            ],
            [
              83.6990674310123,
              27.651570471180726
            ],
            [
              83.69908900627404,
              27.651286417875117
            ],
            [
              83.69905304750446,
              27.650944262756994
            ],
            [
              83.69894517119573,
              27.650595651881925
            ],
            [
              83.69890921242616,
              27.650305142819366
            ],
            [
              83.69892359593399,
              27.649272221708053
            ],
            [
              83.69861435051564,
              27.648290946652303
            ],
            [
              83.6985496247304,
              27.648006893346693
            ],
            [
              83.6983626391286,
              27.64748397703409
            ],
            [
              83.69838421439036,
              27.646050798992142
            ],
            [
              83.69834106386686,
              27.645818391742093
            ],
            [
              83.69811811949549,
              27.64523737361698
            ],
            [
              83.69811811949549,
              27.64501142212388
            ],
            [
              83.69823318755813,
              27.644720913061324
            ],
            [
              83.69898832171923,
              27.643862297387543
            ],
            [
              83.69918969082885,
              27.643578244081933
            ],
            [
              83.69952051150895,
              27.642952035658197
            ],
            [
              83.69988729095863,
              27.64243557510254
            ],
            [
              83.70013181059174,
              27.641977216359393
            ],
            [
              83.70036913847095,
              27.641693163053784
            ],
            [
              83.70147666857387,
              27.640698976484142
            ],
            [
              83.70154139435911,
              27.640589228616065
            ],
            [
              83.70157016137478,
              27.64035682136602
            ],
            [
              83.70146228506604,
              27.640014666247897
            ],
            [
              83.700872561245,
              27.639259342685246
            ],
            [
              83.70083660247543,
              27.638917187567124
            ],
            [
              83.70092290352241,
              27.638575032449
            ],
            [
              83.70103077983114,
              27.638342625198955
            ],
            [
              83.70113865613986,
              27.63823287733088
            ],
            [
              83.70133283349557,
              27.63815540824753
            ],
            [
              83.7014838603278,
              27.63798755856694
            ],
            [
              83.7015342026052,
              27.63781325312941
            ],
            [
              83.70151262734345,
              27.637471098011286
            ],
            [
              83.70167084592958,
              27.63701273926814
            ],
            [
              83.70199447485577,
              27.636593115066667
            ],
            [
              83.7023396790437,
              27.63642526538608
            ],
            [
              83.70246913061418,
              27.63625741570549
            ],
            [
              83.70256262341508,
              27.6355666497123
            ],
            [
              83.70256262341508,
              27.635224494594176
            ],
            [
              83.70244036359851,
              27.634817781906595
            ],
            [
              83.70238282956718,
              27.634475626788472
            ],
            [
              83.70236125430544,
              27.634017268045326
            ],
            [
              83.70228214501238,
              27.63372675898277
            ],
            [
              83.7022461862428,
              27.633326502052135
            ],
            [
              83.70201605011752,
              27.632616368788106
            ],
            [
              83.70218865221148,
              27.632138642774123
            ],
            [
              83.70234687079761,
              27.631912691281023
            ],
            [
              83.70247632236808,
              27.63162863797541
            ],
            [
              83.70279995129427,
              27.631170279232265
            ],
            [
              83.70312358022045,
              27.630834579871088
            ],
            [
              83.70345440090055,
              27.630376221127943
            ],
            [
              83.70354789370145,
              27.629801658759774
            ],
            [
              83.70346159265446,
              27.62940140182914
            ],
            [
              83.70318830600569,
              27.62882683946097
            ],
            [
              83.70308762145088,
              27.628652534023438
            ],
            [
              83.70291501935691,
              27.6284782285859
            ],
            [
              83.70256262341508,
              27.62778746259271
            ],
            [
              83.70184344802355,
              27.626786820266126
            ],
            [
              83.70159173663652,
              27.626037952460422
            ],
            [
              83.70155577786694,
              27.625805545210376
            ],
            [
              83.70151262734345,
              27.625747443397866
            ],
            [
              83.70145509331213,
              27.62534718646723
            ],
            [
              83.70136160051123,
              27.624998575592162
            ],
            [
              83.7012033819251,
              27.624424013223994
            ],
            [
              83.70121057367902,
              27.624256163543404
            ],
            [
              83.70110269737029,
              27.62394628721001
            ],
            [
              83.70105954684679,
              27.623868818126663
            ],
            [
              83.700872561245,
              27.623694512689127
            ],
            [
              83.7006783838893,
              27.623578309064104
            ],
            [
              83.70023249514655,
              27.623404003626572
            ],
            [
              83.70010304357608,
              27.62332653454322
            ],
            [
              83.6998297569273,
              27.623074760022337
            ],
            [
              83.69967873009509,
              27.62284235277229
            ],
            [
              83.69951331975504,
              27.622383994029146
            ],
            [
              83.69947736098545,
              27.622041838911024
            ],
            [
              83.69961400430985,
              27.621292971105323
            ],
            [
              83.69957085378635,
              27.62106701961222
            ],
            [
              83.69947016923155,
              27.620776510549664
            ],
            [
              83.69915373205927,
              27.620260049994005
            ],
            [
              83.6990674310123,
              27.62002764274396
            ],
            [
              83.69903147224272,
              27.619853337306427
            ],
            [
              83.69903147224272,
              27.619569284000814
            ],
            [
              83.69913934855144,
              27.619285230695205
            ],
            [
              83.69942701870805,
              27.618994721632646
            ],
            [
              83.69949174449329,
              27.61888497376457
            ],
            [
              83.69962838781768,
              27.618194207771378
            ],
            [
              83.69971468886466,
              27.61781331811158
            ],
            [
              83.6997794146499,
              27.617606733889318
            ],
            [
              83.69950612800112,
              27.617567999347642
            ],
            [
              83.69860715876172,
              27.61755508783375
            ],
            [
              83.69795990090935,
              27.617684202972665
            ],
            [
              83.6969314800995,
              27.61771002600045
            ],
            [
              83.69577360771915,
              27.61787787568104
            ],
            [
              83.69525580143726,
              27.61801990233384
            ],
            [
              83.69487463847975,
              27.618226486556107
            ],
            [
              83.69480991269451,
              27.618226486556107
            ],
            [
              83.6946157353388,
              27.618323322910292
            ],
            [
              83.69403320327167,
              27.618484716833933
            ],
            [
              83.69351539698978,
              27.6186913010562
            ],
            [
              83.69330683612624,
              27.61873003559787
            ],
            [
              83.69291848141482,
              27.618859150736785
            ],
            [
              83.69259485248864,
              27.6189172525493
            ],
            [
              83.69246540091817,
              27.618968898604862
            ],
            [
              83.69214177199198,
              27.619007633146538
            ],
            [
              83.69182533481971,
              27.619098013743777
            ],
            [
              83.69137225432306,
              27.619149659799344
            ],
            [
              83.6909191738264,
              27.61931750947993
            ],
            [
              83.69050924385324,
              27.619543460973034
            ],
            [
              83.69010650563399,
              27.619691943382783
            ],
            [
              83.68971815092257,
              27.619898527605045
            ],
            [
              83.68965342513734,
              27.619898527605045
            ],
            [
              83.6890708930702,
              27.62024068272317
            ],
            [
              83.6885530867883,
              27.620460178459325
            ],
            [
              83.68791302068986,
              27.620550559056564
            ],
            [
              83.68767569281066,
              27.620550559056564
            ],
            [
              83.68756781650193,
              27.620221315452333
            ],
            [
              83.6875534329941,
              27.619995363959234
            ],
            [
              83.68757500825585,
              27.619627385813327
            ],
            [
              83.68751747422452,
              27.619323965236877
            ],
            [
              83.68751028247061,
              27.61817484050054
            ],
            [
              83.68738083090014,
              27.617864964167147
            ],
            [
              83.68734487213055,
              27.617639012674047
            ],
            [
              83.68734487213055,
              27.61748407450735
            ],
            [
              83.68756062474802,
              27.617200021201736
            ],
            [
              83.68741678966971,
              27.616890144868343
            ],
            [
              83.687222612314,
              27.616696472159973
            ],
            [
              83.68699247618872,
              27.616541533993274
            ],
            [
              83.68681987409475,
              27.61644469763909
            ],
            [
              83.68662569673904,
              27.616386595826576
            ],
            [
              83.68624453378153,
              27.616147732819584
            ],
            [
              83.68599282239451,
              27.61603152919456
            ],
            [
              83.6857986450388,
              27.615973427382052
            ],
            [
              83.68547501611262,
              27.615954060111214
            ],
            [
              83.68509385315511,
              27.61587013527092
            ],
            [
              83.68496440158464,
              27.615812033458408
            ],
            [
              83.68474864896719,
              27.615637728020875
            ],
            [
              83.6847126901976,
              27.615579626208362
            ],
            [
              83.68469111493586,
              27.6154440553125
            ],
            [
              83.6847126901976,
              27.615211648062456
            ],
            [
              83.68484214176807,
              27.61490822748601
            ],
            [
              83.6850435108777,
              27.61468227599291
            ],
            [
              83.68541029032738,
              27.61445632449981
            ],
            [
              83.68626610904329,
              27.614101257867794
            ],
            [
              83.68671918953994,
              27.613843027589965
            ],
            [
              83.6871291195131,
              27.613707456694105
            ],
            [
              83.68719384529834,
              27.613636443367703
            ]
          ]
        ]
      }
    },
    {
      "type": "Feature",
      "properties": {
        "PROVINCE": 5,
        "DISTRICT": "NAWALPARASI",
        "PALIKA": "Sunwal",
        "TYPE": "Nagarpalika",
        "WARD": 7
      },
      "geometry": {
        "type": "Polygon",
        "coordinates": [
          [
            [
              83.608882836916,
              27.606309159234314
            ],
            [
              83.60847290694284,
              27.60639308407461
            ],
            [
              83.60814927801665,
              27.606405995588503
            ],
            [
              83.60769619752,
              27.606477008914904
            ],
            [
              83.60717839123811,
              27.606599668296873
            ],
            [
              83.60673250249536,
              27.606631947081603
            ],
            [
              83.6048554547235,
              27.60705802704002
            ],
            [
              83.60446710001209,
              27.607090305824748
            ],
            [
              83.6041434710859,
              27.60716131915115
            ],
            [
              83.60303594098296,
              27.60752284154011
            ],
            [
              83.60109416742587,
              27.608045757852715
            ],
            [
              83.60083526428492,
              27.60815550572079
            ],
            [
              83.60018800643255,
              27.608297532373594
            ],
            [
              83.60012328064731,
              27.608258797831922
            ],
            [
              83.59984999399855,
              27.60823297480414
            ],
            [
              83.59920273614617,
              27.608052213609657
            ],
            [
              83.59876403915734,
              27.607774616060993
            ],
            [
              83.5985051360164,
              27.60765841243597
            ],
            [
              83.59810958955107,
              27.607212965206717
            ],
            [
              83.59790102868753,
              27.606825619789973
            ],
            [
              83.59741918117521,
              27.606147765310673
            ],
            [
              83.59680788209242,
              27.60548927810221
            ],
            [
              83.5965130201819,
              27.605276238123
            ],
            [
              83.59577226952864,
              27.604921171490986
            ],
            [
              83.59525446324675,
              27.60472104302567
            ],
            [
              83.59417570015947,
              27.604127113386664
            ],
            [
              83.59378734544805,
              27.604004454004695
            ],
            [
              83.59353563406101,
              27.603959263706074
            ],
            [
              83.59301782777912,
              27.603933440678293
            ],
            [
              83.59230584414152,
              27.604056100060262
            ],
            [
              83.59152913471868,
              27.60426914003947
            ],
            [
              83.59101132843679,
              27.60435952063671
            ],
            [
              83.59088187686632,
              27.604411166692273
            ],
            [
              83.59011235919739,
              27.60435952063671
            ],
            [
              83.58965927870074,
              27.60439179942144
            ],
            [
              83.58933564977455,
              27.604501547289516
            ],
            [
              83.58907674663361,
              27.604475724261732
            ],
            [
              83.5889760620788,
              27.60435952063671
            ],
            [
              83.5889329115553,
              27.604152936414447
            ],
            [
              83.58896167857097,
              27.6039205291644
            ],
            [
              83.58909832189535,
              27.6034686261782
            ],
            [
              83.58932126626672,
              27.603010267435053
            ],
            [
              83.58947948485286,
              27.602558364448853
            ],
            [
              83.589551402392,
              27.60224848811546
            ],
            [
              83.58951544362243,
              27.601945067539013
            ],
            [
              83.58941475906762,
              27.601790129372315
            ],
            [
              83.58916304768059,
              27.60155772212227
            ],
            [
              83.58865243315262,
              27.601202655490255
            ],
            [
              83.58852298158214,
              27.60116392094858
            ],
            [
              83.58827127019511,
              27.60097024824021
            ],
            [
              83.58818496914813,
              27.60083467734435
            ],
            [
              83.58814901037854,
              27.60048606646928
            ],
            [
              83.5879836000385,
              27.600105176809482
            ],
            [
              83.58767435462015,
              27.599698464121904
            ],
            [
              83.58739387621746,
              27.599595172010773
            ],
            [
              83.58719969886175,
              27.599595172010773
            ],
            [
              83.58688326168948,
              27.599530614441314
            ],
            [
              83.58666750907203,
              27.59936922051767
            ],
            [
              83.58654524925547,
              27.599104534482898
            ],
            [
              83.58655244100939,
              27.598833392691176
            ],
            [
              83.5864229894389,
              27.598717189066154
            ],
            [
              83.58643018119282,
              27.598491237573054
            ],
            [
              83.58632949663802,
              27.598026423072962
            ],
            [
              83.58593395017267,
              27.597464772218686
            ],
            [
              83.58587641614136,
              27.597316289808933
            ],
            [
              83.58581888211003,
              27.597083882558888
            ],
            [
              83.58581888211003,
              27.596851475308842
            ],
            [
              83.5857613480787,
              27.596548054732395
            ],
            [
              83.5856606635239,
              27.596393116565697
            ],
            [
              83.58553121195342,
              27.596276912940674
            ],
            [
              83.5850493644411,
              27.59590247903782
            ],
            [
              83.58489833760889,
              27.59570880632945
            ],
            [
              83.58478326954625,
              27.59537956272522
            ],
            [
              83.58478326954625,
              27.595153611232117
            ],
            [
              83.5850493644411,
              27.594792088843157
            ],
            [
              83.58517881601158,
              27.594662973704246
            ],
            [
              83.58550963669168,
              27.59445638948198
            ],
            [
              83.58561751300041,
              27.59430790707223
            ],
            [
              83.58566785527782,
              27.593888282870758
            ],
            [
              83.585567170723,
              27.593733344704063
            ],
            [
              83.58544491090645,
              27.593423468370666
            ],
            [
              83.58525073355074,
              27.59234535696073
            ],
            [
              83.58479765305408,
              27.59165459096754
            ],
            [
              83.58455313342097,
              27.5911123073841
            ],
            [
              83.58417197046346,
              27.590724961967357
            ],
            [
              83.58387710855294,
              27.59052483350204
            ],
            [
              83.58385553329119,
              27.59038926260618
            ],
            [
              83.58389868381468,
              27.59031824927978
            ],
            [
              83.58388430030685,
              27.59018267838392
            ]
          ]
        ]
      }
    },
    {
      "type": "Feature",
      "properties": {
        "PROVINCE": 5,
        "DISTRICT": "NAWALPARASI",
        "PALIKA": "Sunwal",
        "TYPE": "Nagarpalika",
        "WARD": 8
      },
      "geometry": {
        "type": "Polygon",
        "coordinates": [
          [
            [
              83.608882836916,
              27.606309159234314
            ],
            [
              83.60929276688917,
              27.606083207741214
            ],
            [
              83.61020611963639,
              27.605870167762006
            ],
            [
              83.61091810327399,
              27.605560291428613
            ],
            [
              83.6116300869116,
              27.60534079569246
            ],
            [
              83.61201844162302,
              27.60530851690773
            ],
            [
              83.61247152211968,
              27.605179401768815
            ],
            [
              83.61260097369015,
              27.60518585752576
            ],
            [
              83.61292460261633,
              27.605114844199356
            ],
            [
              83.61311877997204,
              27.60503737511601
            ],
            [
              83.6137660378244,
              27.6049792733035
            ],
            [
              83.61408966675059,
              27.60488243694931
            ],
            [
              83.61434856989153,
              27.604850158164584
            ],
            [
              83.61441329567677,
              27.60481142362291
            ],
            [
              83.61460747303248,
              27.604798512109017
            ],
            [
              83.61557835981102,
              27.60444990123395
            ],
            [
              83.61577253716673,
              27.604436989720057
            ],
            [
              83.6159019887372,
              27.604378887907547
            ],
            [
              83.61629034344863,
              27.604307874581142
            ],
            [
              83.6171317786567,
              27.604075467331096
            ],
            [
              83.6176495849386,
              27.603894706136618
            ],
            [
              83.61803793965002,
              27.60384306008105
            ],
            [
              83.61842629436144,
              27.60373976796992
            ]
          ]
        ]
      }
    },
    {
      "type": "Feature",
      "properties": {
        "PROVINCE": 5,
        "DISTRICT": "NAWALPARASI",
        "PALIKA": "Sunwal",
        "TYPE": "Nagarpalika",
        "WARD": 2
      },
      "geometry": {
        "type": "Polygon",
        "coordinates": [
          [
            [
              83.6437125011272,
              27.590137488085297
            ],
            [
              83.64423030740909,
              27.590066474758896
            ],
            [
              83.64448201879611,
              27.59002774021722
            ],
            [
              83.64491352403103,
              27.589879257807468
            ],
            [
              83.64534502926594,
              27.58978887721023
            ],
            [
              83.64571180871562,
              27.589692040856043
            ],
            [
              83.64586283554783,
              27.589582292987966
            ],
            [
              83.64610016342704,
              27.589298239682353
            ],
            [
              83.64648851813845,
              27.58895608456423
            ],
            [
              83.64657481918543,
              27.588807602154482
            ],
            [
              83.64694159863511,
              27.588542916119707
            ],
            [
              83.64730837808477,
              27.588123291918233
            ],
            [
              83.6475097471944,
              27.587955442237647
            ],
            [
              83.64781180085885,
              27.587748858015384
            ],
            [
              83.64806351224587,
              27.587671388932034
            ],
            [
              83.64858131852776,
              27.58761974287647
            ],
            [
              83.64909193305574,
              27.587626198633416
            ],
            [
              83.64917823410272,
              27.587664933175088
            ],
            [
              83.6493076856732,
              27.587761769529273
            ]
          ]
        ]
      }
    },
    {
      "type": "Feature",
      "properties": {
        "PROVINCE": 5,
        "DISTRICT": "NAWALPARASI",
        "PALIKA": "Sunwal",
        "TYPE": "Nagarpalika",
        "WARD": 9
      },
      "geometry": {
        "type": "Polygon",
        "coordinates": [
          [
            [
              83.67393944283268,
              27.596360837780967
            ],
            [
              83.67385314178568,
              27.59612843053092
            ],
            [
              83.67376684073871,
              27.596089695989246
            ],
            [
              83.67348636233602,
              27.596121974773975
            ],
            [
              83.67314834990201,
              27.596083240232304
            ],
            [
              83.67274561168276,
              27.59583146571142
            ],
            [
              83.67242198275657,
              27.59554095664886
            ],
            [
              83.67217027136954,
              27.59501804033626
            ],
            [
              83.67213431259997,
              27.594792088843157
            ],
            [
              83.67199047752166,
              27.59438537615558
            ],
            [
              83.67194732699816,
              27.594114234363857
            ],
            [
              83.67199047752166,
              27.59403676528051
            ],
            [
              83.67216307961563,
              27.593927017412433
            ],
            [
              83.67274561168276,
              27.593817269544356
            ],
            [
              83.67321307568724,
              27.593649419863766
            ],
            [
              83.67368773144564,
              27.593578406537365
            ],
            [
              83.67416238720405,
              27.593410556856774
            ],
            [
              83.67482402856425,
              27.593229795662296
            ],
            [
              83.67521238327566,
              27.59315878233589
            ],
            [
              83.67532025958438,
              27.593003844169196
            ],
            [
              83.6753274513383,
              27.592719790863583
            ],
            [
              83.67516204099826,
              27.59191282124537
            ],
            [
              83.67480964505641,
              27.590989648002132
            ],
            [
              83.67463704296244,
              27.590641037127064
            ],
            [
              83.67427026351277,
              27.589491912390727
            ],
            [
              83.67404012738749,
              27.589065832432308
            ],
            [
              83.67397540160225,
              27.588814057911424
            ],
            [
              83.67364458092214,
              27.5879489864807
            ],
            [
              83.6736230056604,
              27.58778113680011
            ],
            [
              83.67350074584385,
              27.587490627737555
            ],
            [
              83.67316992516375,
              27.58638023754289
            ],
            [
              83.67299732306978,
              27.586180109077574
            ],
            [
              83.67227095592435,
              27.585850865473343
            ],
            [
              83.67197609401383,
              27.58565719276497
            ],
            [
              83.67168123210331,
              27.585366683702414
            ],
            [
              83.67138637019279,
              27.585018072827346
            ],
            [
              83.67127849388406,
              27.58484376738981
            ],
            [
              83.67122095985273,
              27.58461781589671
            ],
            [
              83.67109150828226,
              27.584385408646664
            ],
            [
              83.6705449349847,
              27.58361071781318
            ],
            [
              83.67048020919947,
              27.583436412375644
            ],
            [
              83.6704945927073,
              27.583333120264513
            ],
            [
              83.67050178446122,
              27.58322982815338
            ],
            [
              83.67060966076994,
              27.58311362452836
            ],
            [
              83.67101959074311,
              27.58286830576442
            ],
            [
              83.67162369807198,
              27.582610075486592
            ],
            [
              83.67166684859548,
              27.582551973674082
            ],
            [
              83.67183945068945,
              27.582455137319897
            ],
            [
              83.6722925311861,
              27.58204196887537
            ],
            [
              83.67231410644784,
              27.58198386706286
            ],
            [
              83.67227814767827,
              27.581848296167
            ],
            [
              83.67208397032256,
              27.581615888916954
            ],
            [
              83.67204081979907,
              27.581480318021093
            ],
            [
              83.67202643629123,
              27.58113816290297
            ],
            [
              83.67192575173642,
              27.580796007784848
            ],
            [
              83.6716308898259,
              27.58015688784722
            ],
            [
              83.67154458877891,
              27.58009878603471
            ],
            [
              83.67088294741872,
              27.57989865756939
            ],
            [
              83.67071753707867,
              27.57969207334713
            ],
            [
              83.6705880855082,
              27.579440298826245
            ],
            [
              83.67052335972296,
              27.579382197013736
            ],
            [
              83.67031479885942,
              27.579324095201223
            ],
            [
              83.67012062150371,
              27.579162701277582
            ],
            [
              83.66993363590193,
              27.578988395840046
            ],
            [
              83.66973945854622,
              27.578704342534436
            ],
            [
              83.66961719872965,
              27.578568771638576
            ],
            [
              83.66927199454173,
              27.578278262576017
            ],
            [
              83.66867507896677,
              27.577981297756516
            ],
            [
              83.66863912019718,
              27.577865094131493
            ],
            [
              83.66863912019718,
              27.577697244450903
            ],
            [
              83.66872542124418,
              27.577561673555042
            ],
            [
              83.66894117386163,
              27.577374456603618
            ],
            [
              83.66904905017036,
              27.577122682082734
            ],
            [
              83.66905624192427,
              27.576954832402148
            ],
            [
              83.6688836398303,
              27.57658685425624
            ],
            [
              83.66848809336497,
              27.576012291888073
            ],
            [
              83.66842336757973,
              27.57579925190886
            ]
          ]
        ]
      }
    },
    {
      "type": "Feature",
      "properties": {
        "PROVINCE": 5,
        "DISTRICT": "NAWALPARASI",
        "PALIKA": "Sunwal",
        "TYPE": "Nagarpalika",
        "WARD": 13
      },
      "geometry": {
        "type": "Polygon",
        "coordinates": [
          [
            [
              83.70071434265887,
              27.59869136603837
            ],
            [
              83.70041228899443,
              27.598478326059162
            ],
            [
              83.70026845391612,
              27.598400856975815
            ],
            [
              83.6999232497282,
              27.598381489704977
            ],
            [
              83.69940544344631,
              27.598549339385563
            ],
            [
              83.699261608368,
              27.598542883628618
            ],
            [
              83.69898112996532,
              27.59860098544113
            ],
            [
              83.69867907630088,
              27.598575162413347
            ],
            [
              83.69852804946865,
              27.598458958788324
            ],
            [
              83.6984057896521,
              27.598213640024387
            ],
            [
              83.6984057896521,
              27.598058701857692
            ],
            [
              83.69856400823824,
              27.597445404947848
            ],
            [
              83.69856400823824,
              27.59721945345475
            ],
            [
              83.69887325365659,
              27.596664258357414
            ],
            [
              83.6990674310123,
              27.596438306864314
            ],
            [
              83.69928318362975,
              27.596270457183728
            ],
            [
              83.69945578572371,
              27.596038049933682
            ],
            [
              83.69954208677069,
              27.59597994812117
            ],
            [
              83.6999735920056,
              27.59546994332246
            ],
            [
              83.70032598794745,
              27.594979305794585
            ],
            [
              83.70036913847095,
              27.594843734898724
            ],
            [
              83.70056331582666,
              27.59452094705144
            ],
            [
              83.70069995915104,
              27.59414005739164
            ],
            [
              83.70080783545977,
              27.59394638468327
            ],
            [
              83.70100201281548,
              27.59372043319017
            ],
            [
              83.70131125823383,
              27.59257130845383
            ],
            [
              83.70151981909737,
              27.59142863947444
            ],
            [
              83.70149824383563,
              27.591351170391093
            ],
            [
              83.70154139435911,
              27.591047749814642
            ],
            [
              83.70146228506604,
              27.59051192198815
            ],
            [
              83.70144790155821,
              27.58996963840471
            ],
            [
              83.70155577786694,
              27.589588748744912
            ],
            [
              83.70167084592958,
              27.589362797251813
            ],
            [
              83.70180029750006,
              27.588826969425316
            ],
            [
              83.70221741922714,
              27.588181393730746
            ],
            [
              83.70241159658285,
              27.587955442237647
            ],
            [
              83.70271365024729,
              27.58741961441115
            ],
            [
              83.70308762145088,
              27.587019357480518
            ],
            [
              83.70356227720927,
              27.58660618903599
            ],
            [
              83.703670153518,
              27.58645770662624
            ],
            [
              83.70358385247103,
              27.586147830292845
            ],
            [
              83.70333214108399,
              27.585650737008024
            ],
            [
              83.70329618231442,
              27.58549579884133
            ],
            [
              83.70318830600569,
              27.58534086067463
            ],
            [
              83.7030013204039,
              27.584798577091192
            ],
            [
              83.70283591006384,
              27.58445642197307
            ],
            [
              83.70262015744639,
              27.584185280181348
            ],
            [
              83.70254104815332,
              27.584010974743812
            ],
            [
              83.70249789762983,
              27.583817302035442
            ],
            [
              83.70234687079761,
              27.583649452354855
            ],
            [
              83.70222461098106,
              27.583417045104806
            ],
            [
              83.7021958439654,
              27.583333120264513
            ],
            [
              83.70189379030096,
              27.58241640277822
            ],
            [
              83.70189379030096,
              27.582035513118424
            ],
            [
              83.70194413257836,
              27.58172563678503
            ],
            [
              83.7020520088871,
              27.58149968529193
            ],
            [
              83.70226776150454,
              27.58133183561134
            ],
            [
              83.70246193886025,
              27.581099428361295
            ],
            [
              83.70252666464549,
              27.580950945951543
            ],
            [
              83.70251228113766,
              27.580796007784848
            ],
            [
              83.70238282956718,
              27.580660436888987
            ],
            [
              83.70210954291841,
              27.580466764180617
            ],
            [
              83.70193694082445,
              27.580389295097266
            ],
            [
              83.70138317577297,
              27.57982764424299
            ],
            [
              83.70115303964769,
              27.57967270607629
            ],
            [
              83.70100201281548,
              27.579595236992944
            ],
            [
              83.70074310967453,
              27.579627515777673
            ],
            [
              83.70055612407273,
              27.57956941396516
            ],
            [
              83.70046982302576,
              27.57951131215265
            ],
            [
              83.70018934462306,
              27.579259537631767
            ],
            [
              83.69981537341947,
              27.578794723131676
            ],
            [
              83.69964277132551,
              27.57842674498577
            ],
            [
              83.69954208677069,
              27.5780071207843
            ],
            [
              83.69954208677069,
              27.5777811692912
            ],
            [
              83.69963557957159,
              27.577238885707757
            ],
            [
              83.69970030535683,
              27.577187239652194
            ],
            [
              83.69974345588032,
              27.577032301485495
            ],
            [
              83.6998729074508,
              27.576864451804905
            ],
            [
              83.6998800992047,
              27.576612677284025
            ],
            [
              83.69983694868122,
              27.576535208200674
            ],
            [
              83.69956366203245,
              27.576264066408953
            ],
            [
              83.69941263520022,
              27.576186597325606
            ],
            [
              83.69870784331654,
              27.575915455533885
            ],
            [
              83.6984489401756,
              27.575889632506104
            ],
            [
              83.69813250300332,
              27.575941278561668
            ],
            [
              83.69785202460064,
              27.575766973124136
            ],
            [
              83.69747086164313,
              27.575282791353207
            ],
            [
              83.69734860182656,
              27.575056839860107
            ],
            [
              83.69730545130308,
              27.57490190169341
            ],
            [
              83.69724791727175,
              27.574443542950263
            ],
            [
              83.69731264305699,
              27.574366073866916
            ],
            [
              83.69746366988922,
              27.574288604783565
            ],
            [
              83.69765784724493,
              27.57410138783214
            ],
            [
              83.69761469672143,
              27.574043286019627
            ],
            [
              83.69752839567445,
              27.574023918748793
            ],
            [
              83.69710408219345,
              27.57403683026268
            ],
            [
              83.69697463062298,
              27.57399809572101
            ],
            [
              83.6968451790525,
              27.573881892095987
            ],
            [
              83.69683079554467,
              27.57366885211678
            ],
            [
              83.69687394606817,
              27.573597838790374
            ],
            [
              83.69711127394737,
              27.573442900623675
            ],
            [
              83.6975571626901,
              27.573236316401413
            ],
            [
              83.69772976478407,
              27.57322340488752
            ],
            [
              83.69779449056931,
              27.57318467034585
            ],
            [
              83.69795270915544,
              27.57280378068605
            ],
            [
              83.69790955863195,
              27.57238415648458
            ]
          ]
        ]
      }
    },
    {
      "type": "Feature",
      "properties": {
        "PROVINCE": 5,
        "DISTRICT": "NAWALPARASI",
        "PALIKA": "Sunwal",
        "TYPE": "Nagarpalika",
        "WARD": 5
      },
      "geometry": {
        "type": "Polygon",
        "coordinates": [
          [
            [
              83.66842336757973,
              27.57579925190886
            ],
            [
              83.66848809336497,
              27.576012291888073
            ],
            [
              83.6688836398303,
              27.57658685425624
            ],
            [
              83.66905624192427,
              27.576954832402148
            ],
            [
              83.66904905017036,
              27.577122682082734
            ],
            [
              83.66894117386163,
              27.577374456603618
            ],
            [
              83.66872542124418,
              27.577561673555042
            ],
            [
              83.66863912019718,
              27.577697244450903
            ],
            [
              83.66863912019718,
              27.577865094131493
            ],
            [
              83.66867507896677,
              27.577981297756516
            ],
            [
              83.66927199454173,
              27.578278262576017
            ],
            [
              83.66961719872965,
              27.578568771638576
            ],
            [
              83.66973945854622,
              27.578704342534436
            ],
            [
              83.66993363590193,
              27.578988395840046
            ],
            [
              83.67012062150371,
              27.579162701277582
            ],
            [
              83.67031479885942,
              27.579324095201223
            ],
            [
              83.67052335972296,
              27.579382197013736
            ],
            [
              83.6705880855082,
              27.579440298826245
            ],
            [
              83.67071753707867,
              27.57969207334713
            ],
            [
              83.67088294741872,
              27.57989865756939
            ],
            [
              83.67154458877891,
              27.58009878603471
            ],
            [
              83.6716308898259,
              27.58015688784722
            ],
            [
              83.67192575173642,
              27.580796007784848
            ],
            [
              83.67202643629123,
              27.58113816290297
            ],
            [
              83.67204081979907,
              27.581480318021093
            ],
            [
              83.67208397032256,
              27.581615888916954
            ],
            [
              83.67227814767827,
              27.581848296167
            ],
            [
              83.67231410644784,
              27.58198386706286
            ],
            [
              83.6722925311861,
              27.58204196887537
            ],
            [
              83.67183945068945,
              27.582455137319897
            ],
            [
              83.67166684859548,
              27.582551973674082
            ],
            [
              83.67162369807198,
              27.582610075486592
            ],
            [
              83.67101959074311,
              27.58286830576442
            ],
            [
              83.67060966076994,
              27.58311362452836
            ],
            [
              83.67050178446122,
              27.58322982815338
            ],
            [
              83.6704945927073,
              27.583333120264513
            ],
            [
              83.67048020919947,
              27.583436412375644
            ],
            [
              83.6705449349847,
              27.58361071781318
            ],
            [
              83.67109150828226,
              27.584385408646664
            ],
            [
              83.67122095985273,
              27.58461781589671
            ],
            [
              83.67127849388406,
              27.58484376738981
            ],
            [
              83.67138637019279,
              27.585018072827346
            ],
            [
              83.67168123210331,
              27.585366683702414
            ],
            [
              83.67197609401383,
              27.58565719276497
            ],
            [
              83.67227095592435,
              27.585850865473343
            ],
            [
              83.67299732306978,
              27.586180109077574
            ],
            [
              83.67316992516375,
              27.58638023754289
            ],
            [
              83.67350074584385,
              27.587490627737555
            ],
            [
              83.6736230056604,
              27.58778113680011
            ],
            [
              83.67364458092214,
              27.5879489864807
            ],
            [
              83.67397540160225,
              27.588814057911424
            ],
            [
              83.67404012738749,
              27.589065832432308
            ],
            [
              83.67427026351277,
              27.589491912390727
            ],
            [
              83.67463704296244,
              27.590641037127064
            ],
            [
              83.67480964505641,
              27.590989648002132
            ],
            [
              83.67516204099826,
              27.59191282124537
            ],
            [
              83.6753274513383,
              27.592719790863583
            ],
            [
              83.67532025958438,
              27.593003844169196
            ],
            [
              83.67521238327566,
              27.59315878233589
            ],
            [
              83.67482402856425,
              27.593229795662296
            ],
            [
              83.67416238720405,
              27.593410556856774
            ],
            [
              83.67368773144564,
              27.593578406537365
            ],
            [
              83.67321307568724,
              27.593649419863766
            ],
            [
              83.67274561168276,
              27.593817269544356
            ],
            [
              83.67216307961563,
              27.593927017412433
            ],
            [
              83.67199047752166,
              27.59403676528051
            ],
            [
              83.67194732699816,
              27.594114234363857
            ],
            [
              83.67199047752166,
              27.59438537615558
            ],
            [
              83.67213431259997,
              27.594792088843157
            ],
            [
              83.67217027136954,
              27.59501804033626
            ],
            [
              83.67242198275657,
              27.59554095664886
            ],
            [
              83.67274561168276,
              27.59583146571142
            ],
            [
              83.67314834990201,
              27.596083240232304
            ],
            [
              83.67348636233602,
              27.596121974773975
            ],
            [
              83.67376684073871,
              27.596089695989246
            ],
            [
              83.67385314178568,
              27.59612843053092
            ],
            [
              83.67393944283268,
              27.596360837780967
            ]
          ]
        ]
      }
    },
    {
      "type": "Feature",
      "properties": {
        "PROVINCE": 5,
        "DISTRICT": "NAWALPARASI",
        "PALIKA": "Sunwal",
        "TYPE": "Nagarpalika",
        "WARD": 11
      },
      "geometry": {
        "type": "Polygon",
        "coordinates": [
          [
            [
              83.74897820318361,
              27.66656073880868
            ],
            [
              83.74902135370709,
              27.666237950961392
            ],
            [
              83.74899258669144,
              27.665469715884853
            ],
            [
              83.74902854546102,
              27.665243764391754
            ],
            [
              83.74932340737153,
              27.66423666630822
            ],
            [
              83.74963984454381,
              27.66346843123168
            ],
            [
              83.74999943223956,
              27.662119178030025
            ],
            [
              83.75017203433353,
              27.66146714657851
            ],
            [
              83.75037340344315,
              27.65970472493233
            ],
            [
              83.75033025291967,
              27.65794230328615
            ],
            [
              83.75038778695098,
              27.656941660959564
            ],
            [
              83.75037340344315,
              27.655715067139877
            ],
            [
              83.75029429415008,
              27.654107583660394
            ],
            [
              83.75033744467358,
              27.653726694000596
            ],
            [
              83.75030867765791,
              27.653455552208875
            ],
            [
              83.75026552713443,
              27.65335871585469
            ],
            [
              83.75026552713443,
              27.65313276436159
            ],
            [
              83.75022237661094,
              27.653055295278243
            ],
            [
              83.75026552713443,
              27.652900357111545
            ],
            [
              83.75025833538051,
              27.65259048077815
            ],
            [
              83.750301485904,
              27.65250010018091
            ],
            [
              83.75027271888834,
              27.651654396021023
            ],
            [
              83.75008573328654,
              27.650201850708235
            ],
            [
              83.74999943223956,
              27.65000172224292
            ],
            [
              83.74995628171607,
              27.64989843013179
            ],
            [
              83.74986278891518,
              27.649511084715044
            ],
            [
              83.74984121365343,
              27.64897525688855
            ],
            [
              83.749877172423,
              27.648284490895357
            ],
            [
              83.74999943223956,
              27.64743878673547
            ],
            [
              83.75030867765791,
              27.646212192915783
            ],
            [
              83.75031586941184,
              27.644753191846053
            ],
            [
              83.75038778695098,
              27.643681536193064
            ],
            [
              83.75038059519707,
              27.64260342478313
            ],
            [
              83.75043812922839,
              27.642145066039983
            ],
            [
              83.75032306116574,
              27.641609238213487
            ],
            [
              83.7502511436266,
              27.64084100313695
            ],
            [
              83.75007854153263,
              27.64023416198405
            ],
            [
              83.74999943223956,
              27.639885551108982
            ],
            [
              83.7498268301456,
              27.639085037247714
            ],
            [
              83.74963265278988,
              27.63840072701147
            ],
            [
              83.74946724244984,
              27.637477553768232
            ],
            [
              83.74946724244984,
              27.635101835212208
            ],
            [
              83.74964703629772,
              27.633565365059127
            ],
            [
              83.74971176208295,
              27.633339413566027
            ],
            [
              83.7499706652239,
              27.6313445846698
            ],
            [
              83.74996347346999,
              27.630957239253057
            ],
            [
              83.74999943223956,
              27.630731287759957
            ],
            [
              83.75002819925523,
              27.63057634959326
            ],
            [
              83.75004258276306,
              27.629885583600068
            ],
            [
              83.74999943223956,
              27.62970482240559
            ],
            [
              83.74976929611428,
              27.628658989780384
            ],
            [
              83.7494960094655,
              27.627051506300898
            ],
            [
              83.74941690017243,
              27.625521491904763
            ],
            [
              83.74943847543418,
              27.624998575592162
            ],
            [
              83.749452858942,
              27.62452084957818
            ],
            [
              83.74921553106282,
              27.62222905586245
            ],
            [
              83.74922991457063,
              27.619162571313236
            ],
            [
              83.74936655789503,
              27.61778103932685
            ],
            [
              83.7493018321098,
              27.615934692840376
            ],
            [
              83.7493593661411,
              27.61525038260413
            ],
            [
              83.74948162595767,
              27.61455961661094
            ],
            [
              83.74956792700465,
              27.61440467844424
            ],
            [
              83.74969018682121,
              27.6140173330275
            ],
            [
              83.74971176208295,
              27.61371391245105
            ],
            [
              83.74960388577423,
              27.613326567034306
            ],
            [
              83.74959669402031,
              27.61309415978426
            ],
            [
              83.74970457032904,
              27.612790739207814
            ],
            [
              83.74991313119259,
              27.61248086287442
            ],
            [
              83.74999943223956,
              27.612287190166047
            ],
            [
              83.7500210075013,
              27.612248455624375
            ],
            [
              83.75012169205613,
              27.611867565964577
            ],
            [
              83.75007854153263,
              27.61171262779788
            ],
            [
              83.75009292504046,
              27.611254269054733
            ],
            [
              83.75027991064225,
              27.61078945455464
            ],
            [
              83.75040936221274,
              27.61032464005455
            ],
            [
              83.75036621168924,
              27.61009868856145
            ],
            [
              83.75027271888834,
              27.609943750394752
            ],
            [
              83.74999943223956,
              27.609659697089143
            ],
            [
              83.74994908996216,
              27.609608051033575
            ],
            [
              83.74979806312994,
              27.609298174700182
            ],
            [
              83.74979087137602,
              27.608781714144524
            ]
          ]
        ]
      }
    }
  ]
}